{"fetched_at":"2026-04-12T08:49:48Z","count":14292,"tles":[{"name":"IRIDIUM 145","line1":"1 43253U 18030E   26101.56360727  .00000194  00000+0  62086-4 0  9994","line2":"2 43253  86.3954 318.2816 0002479  87.2731 272.8749 14.34217404420570","category":"Other"},{"name":"ONEWEB-0592","line1":"1 54658U 22166S   26101.39727253  .00003609  00000+0  87069-2 0  9992","line2":"2 54658  87.9198 257.2637 0001762  98.6112 261.5221 13.21806553162616","category":"Other"},{"name":"TOMORROW-S5","line1":"1 63234U 25052AA  26101.41459211  .00003554  00000+0  15921-3 0  9996","line2":"2 63234  97.4060 355.1494 0007842  38.1763 322.0027 15.21875378 59687","category":"Other"},{"name":"UNKNOWN","line1":"1 82708U          26099.07029148  .00000812  00000+0  32389-2 0  9999","line2":"2 82708 102.1619 318.5861 0066787  45.2419 315.4081 12.90797903538654","category":"Other"},{"name":"FENGYUN 1C DEB","line1":"1 33623U 99025DDG 23173.24576033  .00006000  00000+0  31501-2 0  9995","line2":"2 33623  98.1806 339.0950 0082904  67.0057 293.9835 14.12694660795805","category":"Weather"},{"name":"YAOGAN-30 10B","line1":"1 48861U 21055B   26101.53452979  .00002421  00000+0  18147-3 0  9996","line2":"2 48861  34.9944 198.0046 0004463 224.2040 135.8312 15.02357771263148","category":"Other"},{"name":"STARLINK-30800","line1":"1 58206U 23170A   26101.43889846  .00000407  00000+0  24307-4 0  9994","line2":"2 58206  43.0017   9.6481 0001342 268.1592  91.9105 15.27572064135305","category":"Starlink"},{"name":"STARLINK-35623","line1":"1 66138U 25237AA  26101.13003407  .00018331  00000+0  62946-3 0  9996","line2":"2 66138  53.1589 249.1968 0000881  81.9051 278.2050 15.30202964 27574","category":"Starlink"},{"name":"FENGYUN 1C DEB","line1":"1 30067U 99025PU  26101.47093228  .00000974  00000+0  26125-3 0  9994","line2":"2 30067  98.7538 356.1171 0151044  19.9341 160.1178 14.44081837  9232","category":"Weather"},{"name":"STARLINK-1523","line1":"1 46028U 20055B   26100.91838256  .00000721  00000+0  36469-4 0  9994","line2":"2 46028  53.1611 337.0056 0001165  83.5710 276.5423 15.30203625313834","category":"Starlink"},{"name":"FENGYUN 1C DEB","line1":"1 36204U 99025DUD 26099.04239316  .00002347  00000+0  83188-3 0  9990","line2":"2 36204  99.2883 209.9539 0020187 178.8611 181.2621 14.35463277961103","category":"Weather"},{"name":"STARLINK-3643","line1":"1 51992U 22025AN  26101.39128617 -.00000892  00000+0 -37997-4 0  9993","line2":"2 51992  53.2170 232.3182 0001417  89.4227 270.6928 15.08831003225846","category":"Starlink"},{"name":"SL-4 R/B","line1":"1 59295U 24055B   24085.19762895  .11985791  12485-4  54427-3 0  9992","line2":"2 59295  51.6500  11.2019 0006397  88.1569  65.5530 16.42983046   260","category":"Other"},{"name":"CZ-6A DEB","line1":"1 60718U 24140DX  24249.29683969  .00002333  00000+0  13546-2 0  9997","line2":"2 60718  89.1940 348.7086 0113153 122.1168 239.1056 14.05245673  3338","category":"Other"},{"name":"STARLINK-36061","line1":"1 66847U 25280AC  26101.41448866 -.00000161  00000+0 -57361-5 0  9995","line2":"2 66847  70.0000 252.1060 0003385 280.9936  79.0842 14.98317668 20973","category":"Starlink"},{"name":"ORBCOMM FM111","line1":"1 40089U 14040D   26101.46064858  .00001804  00000+0  21414-3 0  9998","line2":"2 40089  47.0020  14.0596 0028497 184.3272 175.7383 14.88540688634636","category":"Other"},{"name":"YAOGAN-35 04A","line1":"1 53522U 22100A   26101.45526861  .00000096  00000+0  55567-5 0  9996","line2":"2 53522  35.0085 111.4116 0008081  13.9343 346.1594 15.22871095203080","category":"Other"},{"name":"STARLINK-32228","line1":"1 60445U 24144W   26101.54073824 -.00000452  00000+0 -31230-5 0  9993","line2":"2 60445  53.1617  64.1932 0001221 114.3103 245.8025 15.30187699 94387","category":"Starlink"},{"name":"STARLINK-33898","line1":"1 64002U 25101J   26101.46337860  .00013698  00000+0  50631-3 0  9992","line2":"2 64002  43.0033 173.2177 0001932 277.2931  82.7701 15.27583931 52063","category":"Starlink"},{"name":"FENGYUN 1C DEB","line1":"1 31533U 99025BXY 26098.43504524  .00000772  00000+0  32318-3 0  9997","line2":"2 31533  98.9512 358.5026 0065734  11.6242 348.6438 14.27871407677884","category":"Weather"},{"name":"YAOGAN-31 04C","line1":"1 47857U 21020D   26101.49035299  .00000067  00000+0  24284-3 0  9992","line2":"2 47857  63.4061  69.4603 0169115   0.1223 359.9816 13.45442745249489","category":"Other"},{"name":"NULION","line1":"1 57487U 23109G   23341.84479312  .00001898  00000+0  48614-4 0  9999","line2":"2 57487   5.0074  10.1938 0003778 182.8478 177.1609 15.16285066 19791","category":"Other"},{"name":"KZ-1A R/B","line1":"1 62191U 24228B   24340.50398185  .33852827  12798-4  48036-3 0  9992","line2":"2 62191  46.0912 100.6897 0134994   6.8812  42.8048 16.25337093   138","category":"Other"},{"name":"STARLINK-36729","line1":"1 67905U 26036B   26101.35563862  .00013071  00000+0  48338-3 0  9992","line2":"2 67905  43.0037  61.1640 0001924 282.0044  78.0592 15.27598818  8711","category":"Starlink"},{"name":"KUIPER-00099","line1":"1 65138U 25171G   26101.46853424 -.00000352  00000+0 -17185-4 0  9992","line2":"2 65138  51.9039   8.1320 0001038  92.3629 267.7452 14.79931379 37814","category":"Other"},{"name":"SOLIDARIDAD 1","line1":"1 22911U 93073A   26101.21460910 -.00000103  00000+0  00000+0 0  9993","line2":"2 22911  14.3612   2.8911 0007474 271.4443 256.4848  1.00279822117199","category":"Other"},{"name":"TELSTAR 19V","line1":"1 43562U 18059A   26100.79520816 -.00000278  00000+0  00000+0 0  9996","line2":"2 43562   0.0185 183.7386 0001696 260.2575 338.2998  1.00270586 28462","category":"Other"},{"name":"STARLINK-5404","line1":"1 54769U 22175M   23362.15872473  .00002275  00000+0  16099-3 0  9994","line2":"2 54769  53.2183  46.8610 0001685  93.7017 266.4168 15.08839021 56604","category":"Starlink"},{"name":"UNKNOWN","line1":"1 85205U          23337.77633281  .00000310  00000+0  29902-3 0  9993","line2":"2 85205  82.9539 144.5457 0036434 196.8070 225.0914 13.76671850504555","category":"Other"},{"name":"FENGYUN 1C DEB","line1":"1 33733U 99025DHW 26101.21270421  .00006194  00000+0  21888-2 0  9991","line2":"2 33733  99.0885 197.3217 0078814 181.6346 208.0392 14.33283213921586","category":"Weather"},{"name":"QMR-KWT","line1":"1 48943U 21059BS  24250.82002392  .08349989  26479-5  10382-2 0  9993","line2":"2 48943  97.6073  54.4853 0011132 276.1273  83.8755 16.36003099178512","category":"Other"},{"name":"STARLINK-35548","line1":"1 66203U 25243AC  26101.41185222  .00020639  00000+0  70657-3 0  9995","line2":"2 66203  53.1585  93.2592 0000541 143.9642 216.1395 15.30220949 25666","category":"Starlink"},{"name":"FENGYUN 1C DEB","line1":"1 30142U 99025SX  26101.47502779  .00001518  00000+0  82745-3 0  9999","line2":"2 30142  99.1168 184.1140 0098994 333.7088  25.9077 14.11282986979878","category":"Weather"},{"name":"STARLINK-1605","line1":"1 46123U 20057G   26042.78550889  .14380811  12510-4  32957-3 0  9992","line2":"2 46123  53.0212 326.7721 0004033 246.2158 113.8469 16.46294808304925","category":"Starlink"},{"name":"STARLINK-5980","line1":"1 56326U 23058K   26101.41271619  .00022217  00000+0  15433-2 0  9992","line2":"2 56326  97.6025 102.3051 0001070  95.0917 265.0432 15.05548785162698","category":"Starlink"},{"name":"BREEZE-M DEB [TANK]","line1":"1 36399U 10006C   26100.75732263 -.00000303  00000+0 -25416-3 0  9999","line2":"2 36399  46.3482 353.8016 7196508 193.3534 125.6480  2.26678726132434","category":"Other"},{"name":"STARLINK-3558","line1":"1 52119U 22029AH  26101.50720615 -.00000160  00000+0  80331-5 0  9996","line2":"2 52119  53.2174 291.7987 0001349  88.0969 272.0177 15.08836643225742","category":"Starlink"},{"name":"STARLINK-31560","line1":"1 59361U 24060P   26101.20379452  .00001396  00000+0  60228-4 0  9998","line2":"2 59361  43.0021  76.3824 0001258 273.7444  86.3264 15.27579351115037","category":"Starlink"},{"name":"CZ-6A DEB","line1":"1 60783U 24140FJ  24249.24710810  .00002297  00000+0  47188-3 0  9999","line2":"2 60783  89.0802 347.9539 0130210 328.2303  31.1096 14.55078474  3492","category":"Other"},{"name":"ISS OBJECT XX","line1":"1 66911U 98067XX  26101.45822411  .06931681  12208-4  13558-2 0  9995","line2":"2 66911  51.5990 251.7761 0012204 297.7475  62.2310 16.30633237 20407","category":"ISS"},{"name":"ARSAT 1","line1":"1 40272U 14062B   26101.50647734 -.00000258  00000+0  00000+0 0  9998","line2":"2 40272   0.0215 290.3137 0001731  89.1114 290.8208  1.00273197 41954","category":"Other"},{"name":"STARLINK-11737 [DTC]","line1":"1 64066U 25107C   26101.47172117  .00223350  00000+0  16946-2 0  9999","line2":"2 64066  42.9991 260.6493 0001901 265.9489  94.1161 15.70884018 52452","category":"Starlink"},{"name":"QIANFAN-54","line1":"1 62255U 24232U   26101.51056466  .00000128  00000+0  17972-3 0  9995","line2":"2 62255  89.0106  28.8259 0000216 141.0830 219.0337 13.51011060115589","category":"Other"},{"name":"STARLINK-36709","line1":"1 67969U 26038J   26101.02000915  .00023181  00000+0  71799-3 0  9993","line2":"2 67969  97.2855 111.6663 0002295  89.0457 271.1049 15.33450072  8192","category":"Starlink"},{"name":"STARLINK-34976","line1":"1 65209U 25176M   26101.13451521  .00020502  00000+0  70288-3 0  9991","line2":"2 65209  53.1606   2.3251 0001181  95.0904 265.0232 15.30178484 38086","category":"Starlink"},{"name":"TITAN 34D TRANSTAGE DEB","line1":"1 23619U 88077N   26092.56752303 -.00000148  00000+0  25343-2 0  9993","line2":"2 23619  26.5698 163.5199 7348389 193.7466 122.1432  2.01462892  8996","category":"Other"},{"name":"STARLINK-5368","line1":"1 54840U 22177W   26100.86157542  .00000895  00000+0  43051-4 0  9995","line2":"2 54840  43.0020 310.9578 0001328 267.1352  92.9347 15.26747758181887","category":"Starlink"},{"name":"STARLINK-33539","line1":"1 63376U 25063P   26101.19053462  .00027444  00000+0  93537-3 0  9991","line2":"2 63376  53.1610 271.5541 0001234  76.9460 283.1678 15.30198065 59546","category":"Starlink"}]}